{"type": "FeatureCollection", "features": [ {"type": "Feature", "properties": {"norad_id": 67021, "name": "STARLINK-36184", "group": "last-30-days", "lat": 64.9377782887022, "lon": -12.438206150188769, "alt_km": 302.5624167618971, "timestamp": "2025-12-22T04:03:37.890155+00:00", "meta": {"OBJECT_NAME": "STARLINK-36184", "OBJECT_ID": "2025-293U", "EPOCH": "2025-12-21T20:00:01.999008", "MEAN_MOTION": 15.89617689, "ECCENTRICITY": 0.0004251, "INCLINATION": 69.9927, "RA_OF_ASC_NODE": 297.3441, "ARG_OF_PERICENTER": 263.0932, "MEAN_ANOMALY": 51.0591, "EPHEMERIS_TYPE": 0, "CLASSIFICATION_TYPE": "U", "NORAD_CAT_ID": 67021, "ELEMENT_SET_NO": 999, "REV_AT_EPOCH": 168, "BSTAR": -0.0066328, "MEAN_MOTION_DOT": -0.01937525, "MEAN_MOTION_DDOT": 0.0010034}, "tle": {"line1": "1 67021U 25293U   25355.83335647 -.01937525  10034-2 -66328-2 0  9997", "line2": "2 67021  69.9927 297.3441 0004251 263.0932  51.0591 15.89617689  1683"}}, "geometry": {"type": "Point", "coordinates": [-12.438206150188769, 64.9377782887022]}}, {"type": "Feature", "properties": {"norad_id": 67022, "name": "STARLINK-36209", "group": "last-30-days", "lat": 66.6569615667062, "lon": -6.027233699358247, "alt_km": 302.35456971271196, "timestamp": "2025-12-22T04:03:37.890165+00:00", "meta": {"OBJECT_NAME": "STARLINK-36209", "OBJECT_ID": "2025-293V", "EPOCH": "2025-12-21T20:00:01.999008", "MEAN_MOTION": 15.89566284, "ECCENTRICITY": 0.0004037, "INCLINATION": 69.9924, "RA_OF_ASC_NODE": 297.3405, "ARG_OF_PERICENTER": 254.4808, "MEAN_ANOMALY": 62.8664, "EPHEMERIS_TYPE": 0, "CLASSIFICATION_TYPE": "U", "NORAD_CAT_ID": 67022, "ELEMENT_SET_NO": 999, "REV_AT_EPOCH": 168, "BSTAR": -0.0065553, "MEAN_MOTION_DOT": -0.01910118, "MEAN_MOTION_DDOT": 0.00097657}, "tle": {"line1": "1 67022U 25293V   25355.83335647 -.01910118  97657-3 -65553-2 0  9993", "line2": "2 67022  69.9924 297.3405 0004037 254.4808  62.8664 15.89566284  1684"}}, "geometry": {"type": "Point", "coordinates": [-6.027233699358247, 66.6569615667062]}}, {"type": "Feature", "properties": {"norad_id": 67023, "name": "STARLINK-36191", "group": "last-30-days", "lat": 67.86340247550118, "lon": -0.029607465614941347, "alt_km": 302.36181581785513, "timestamp": "2025-12-22T04:03:37.890175+00:00", "meta": {"OBJECT_NAME": "STARLINK-36191", "OBJECT_ID": "2025-293W", "EPOCH": "2025-12-21T20:00:01.999008", "MEAN_MOTION": 15.8953867, "ECCENTRICITY": 0.0004141, "INCLINATION": 69.9923, "RA_OF_ASC_NODE": 297.3367, "ARG_OF_PERICENTER": 254.3773, "MEAN_ANOMALY": 65.61, "EPHEMERIS_TYPE": 0, "CLASSIFICATION_TYPE": "U", "NORAD_CAT_ID": 67023, "ELEMENT_SET_NO": 999, "REV_AT_EPOCH": 157, "BSTAR": -0.00653, "MEAN_MOTION_DOT": -0.01900315, "MEAN_MOTION_DDOT": 0.00096698}, "tle": {"line1": "1 67023U 25293W   25355.83335647 -.01900315  96698-3 -65300-2 0  9996", "line2": "2 67023  69.9923 297.3367 0004141 254.3773  65.6100 15.89538670  1579"}}, "geometry": {"type": "Point", "coordinates": [-0.029607465614941347, 67.86340247550118]}}, {"type": "Feature", "properties": {"norad_id": 67024, "name": "STARLINK-36192", "group": "last-30-days", "lat": 68.92920381010167, "lon": 7.408093109965396, "alt_km": 302.16190696173544, "timestamp": "2025-12-22T04:03:37.890187+00:00", "meta": {"OBJECT_NAME": "STARLINK-36192", "OBJECT_ID": "2025-293X", "EPOCH": "2025-12-21T14:00:01.999872", "MEAN_MOTION": 15.90313058, "ECCENTRICITY": 0.00042776, "INCLINATION": 69.9924, "RA_OF_ASC_NODE": 298.0577, "ARG_OF_PERICENTER": 262.9237, "MEAN_ANOMALY": 69.5662, "EPHEMERIS_TYPE": 0, "CLASSIFICATION_TYPE": "U", "NORAD_CAT_ID": 67024, "ELEMENT_SET_NO": 999, "REV_AT_EPOCH": 164, "BSTAR": -0.0057924609, "MEAN_MOTION_DOT": -0.01754495, "MEAN_MOTION_DDOT": 0.00083981989}, "tle": {"line1": "1 67024U 25293X   25355.58335648 -.01754495  83982-3 -57925-2 0  9992", "line2": "2 67024  69.9924 298.0577 0004277 262.9237  69.5662 15.90313058  1649"}}, "geometry": {"type": "Point", "coordinates": [7.408093109965396, 68.92920381010167]}}, {"type": "Feature", "properties": {"norad_id": 67025, "name": "STARLINK-36178", "group": "last-30-days", "lat": 69.54413332259509, "lon": 14.01878029853965, "alt_km": 302.3434925963702, "timestamp": "2025-12-22T04:03:37.890197+00:00", "meta": {"OBJECT_NAME": "STARLINK-36178", "OBJECT_ID": "2025-293Y", "EPOCH": "2025-12-21T20:00:01.999008", "MEAN_MOTION": 15.89500842, "ECCENTRICITY": 0.0004133, "INCLINATION": 69.9925, "RA_OF_ASC_NODE": 297.3306, "ARG_OF_PERICENTER": 258.1327, "MEAN_ANOMALY": 67.2595, "EPHEMERIS_TYPE": 0, "CLASSIFICATION_TYPE": "U", "NORAD_CAT_ID": 67025, "ELEMENT_SET_NO": 999, "REV_AT_EPOCH": 168, "BSTAR": -0.0066159, "MEAN_MOTION_DOT": -0.01921391, "MEAN_MOTION_DDOT": 0.00098673}, "tle": {"line1": "1 67025U 25293Y   25355.83335647 -.01921391  98673-3 -66159-2 0  9993", "line2": "2 67025  69.9925 297.3306 0004133 258.1327  67.2595 15.89500842  1682"}}, "geometry": {"type": "Point", "coordinates": [14.01878029853965, 69.54413332259509]}}, {"type": "Feature", "properties": {"norad_id": 67026, "name": "STARLINK-36176", "group": "last-30-days", "lat": 69.95438064980841, "lon": 29.288120662211476, "alt_km": 302.49993396129685, "timestamp": "2025-12-22T04:03:37.890207+00:00", "meta": {"OBJECT_NAME": "STARLINK-36176", "OBJECT_ID": "2025-293Z", "EPOCH": "2025-12-21T20:00:01.999008", "MEAN_MOTION": 15.89394379, "ECCENTRICITY": 0.0004294, "INCLINATION": 69.9922, "RA_OF_ASC_NODE": 297.3242, "ARG_OF_PERICENTER": 256.5247, "MEAN_ANOMALY": 74.2475, "EPHEMERIS_TYPE": 0, "CLASSIFICATION_TYPE": "U", "NORAD_CAT_ID": 67026, "ELEMENT_SET_NO": 999, "REV_AT_EPOCH": 168, "BSTAR": -0.006353, "MEAN_MOTION_DOT": -0.01836376, "MEAN_MOTION_DDOT": 0.00090596}, "tle": {"line1": "1 67026U 25293Z   25355.83335647 -.01836376  90596-3 -63530-2 0  9998", "line2": "2 67026  69.9922 297.3242 0004294 256.5247  74.2475 15.89394379  1681"}}, "geometry": {"type": "Point", "coordinates": [29.288120662211476, 69.95438064980841]}}, {"type": "Feature", "properties": {"norad_id": 67027, "name": "STARLINK-36171", "group": "last-30-days", "lat": 69.94042220458955, "lon": 22.677192677567216, "alt_km": 302.4580770761095, "timestamp": "2025-12-22T04:03:37.890217+00:00", "meta": {"OBJECT_NAME": "STARLINK-36171", "OBJECT_ID": "2025-293AA", "EPOCH": "2025-12-21T20:00:01.999008", "MEAN_MOTION": 15.89450208, "ECCENTRICITY": 0.0004252, "INCLINATION": 69.9921, "RA_OF_ASC_NODE": 297.3271, "ARG_OF_PERICENTER": 256.6124, "MEAN_ANOMALY": 71.8544, "EPHEMERIS_TYPE": 0, "CLASSIFICATION_TYPE": "U", "NORAD_CAT_ID": 67027, "ELEMENT_SET_NO": 999, "REV_AT_EPOCH": 168, "BSTAR": -0.0065681, "MEAN_MOTION_DOT": -0.01903004, "MEAN_MOTION_DDOT": 0.00096869}, "tle": {"line1": "1 67027U 25293AA  25355.83335647 -.01903004  96869-3 -65681-2 0  9990", "line2": "2 67027  69.9921 297.3271 0004252 256.6124  71.8544 15.89450208  1686"}}, "geometry": {"type": "Point", "coordinates": [22.677192677567216, 69.94042220458955]}}, {"type": "Feature", "properties": {"norad_id": 67028, "name": "STARLINK-36132", "group": "last-30-days", "lat": 69.03993710918084, "lon": 44.312482504004244, "alt_km": 302.5152033658014, "timestamp": "2025-12-22T04:03:37.890228+00:00", "meta": {"OBJECT_NAME": "STARLINK-36132", "OBJECT_ID": "2025-293AB", "EPOCH": "2025-12-21T20:00:01.999008", "MEAN_MOTION": 15.89415375, "ECCENTRICITY": 0.0004121, "INCLINATION": 69.9925, "RA_OF_ASC_NODE": 297.3179, "ARG_OF_PERICENTER": 262.7296, "MEAN_ANOMALY": 73.3575, "EPHEMERIS_TYPE": 0, "CLASSIFICATION_TYPE": "U", "NORAD_CAT_ID": 67028, "ELEMENT_SET_NO": 999, "REV_AT_EPOCH": 169, "BSTAR": -0.0065472, "MEAN_MOTION_DOT": -0.01893669, "MEAN_MOTION_DDOT": 0.00095952}, "tle": {"line1": "1 67028U 25293AB  25355.83335647 -.01893669  95952-3 -65472-2 0  9996", "line2": "2 67028  69.9925 297.3179 0004121 262.7296  73.3575 15.89415375  1699"}}, "geometry": {"type": "Point", "coordinates": [44.312482504004244, 69.03993710918084]}}, {"type": "Feature", "properties": {"norad_id": 67029, "name": "STARLINK-36190", "group": "last-30-days", "lat": 69.70525362972224, "lon": 36.173696495438136, "alt_km": 302.45402700112663, "timestamp": "2025-12-22T04:03:37.890254+00:00", "meta": {"OBJECT_NAME": "STARLINK-36190", "OBJECT_ID": "2025-293AC", "EPOCH": "2025-12-21T20:00:01.999008", "MEAN_MOTION": 15.89444483, "ECCENTRICITY": 0.0004186, "INCLINATION": 69.9926, "RA_OF_ASC_NODE": 297.3217, "ARG_OF_PERICENTER": 262.1621, "MEAN_ANOMALY": 70.953, "EPHEMERIS_TYPE": 0, "CLASSIFICATION_TYPE": "U", "NORAD_CAT_ID": 67029, "ELEMENT_SET_NO": 999, "REV_AT_EPOCH": 168, "BSTAR": -0.0065509, "MEAN_MOTION_DOT": -0.01897505, "MEAN_MOTION_DDOT": 0.00096342}, "tle": {"line1": "1 67029U 25293AC  25355.83335647 -.01897505  96342-3 -65509-2 0  9995", "line2": "2 67029  69.9926 297.3217 0004186 262.1621  70.9530 15.89444483  1686"}}, "geometry": {"type": "Point", "coordinates": [36.173696495438136, 69.70525362972224]}}, {"type": "Feature", "properties": {"norad_id": 67030, "name": "STARLINK-36138", "group": "last-30-days", "lat": 24.301170027754452, "lon": 153.45053217870284, "alt_km": 315.5275580341249, "timestamp": "2025-12-22T04:03:37.890265+00:00", "meta": {"OBJECT_NAME": "STARLINK-36138", "OBJECT_ID": "2025-294A", "EPOCH": "2025-12-21T20:00:01.999008", "MEAN_MOTION": 15.85480003, "ECCENTRICITY": 0.0001937, "INCLINATION": 42.9998, "RA_OF_ASC_NODE": 126.5331, "ARG_OF_PERICENTER": 277.4241, "MEAN_ANOMALY": 1.3835, "EPHEMERIS_TYPE": 0, "CLASSIFICATION_TYPE": "U", "NORAD_CAT_ID": 67030, "ELEMENT_SET_NO": 999, "REV_AT_EPOCH": 157, "BSTAR": -0.0084926, "MEAN_MOTION_DOT": -0.01852875, "MEAN_MOTION_DDOT": 0}, "tle": {"line1": "1 67030U 25294A   25355.83335647 -.01852875  00000+0 -84926-2 0  9995", "line2": "2 67030  42.9998 126.5331 0001937 277.4241   1.3835 15.85480003  1574"}}, "geometry": {"type": "Point", "coordinates": [153.45053217870284, 24.301170027754452]}}]}